CCSDS_OMM_VERS = 2.0
CREATION_DATE  = 
ORIGINATOR     = 

OBJECT_NAME    = XRISM
OBJECT_ID      = 2023-137A
CENTER_NAME    = EARTH
REF_FRAME      = TEME
TIME_SYSTEM    = UTC
MEAN_ELEMENT_THEORY = SGP/SGP4

EPOCH          = 2026-03-26T13:04:51.493152
MEAN_MOTION    = 15.11687851
ECCENTRICITY   = .000794
INCLINATION    = 31.0012
RA_OF_ASC_NODE = 174.6249
ARG_OF_PERICENTER = 208.9758
MEAN_ANOMALY   = 151.0440

EPHEMERIS_TYPE = 0
CLASSIFICATION_TYPE = U
NORAD_CAT_ID   = 57800
ELEMENT_SET_NO = 999
REV_AT_EPOCH   = 14034
BSTAR          = .3208E-3
MEAN_MOTION_DOT = .5698E-4
MEAN_MOTION_DDOT = 0

CCSDS_OMM_VERS = 2.0
CREATION_DATE  = 
ORIGINATOR     = 

OBJECT_NAME    = ACS3
OBJECT_ID      = 2024-077B
CENTER_NAME    = EARTH
REF_FRAME      = TEME
TIME_SYSTEM    = UTC
MEAN_ELEMENT_THEORY = SGP/SGP4

EPOCH          = 2026-03-26T09:56:34.139328
MEAN_MOTION    = 13.90340975
ECCENTRICITY   = .0071527
INCLINATION    = 97.1983
RA_OF_ASC_NODE = 22.7675
ARG_OF_PERICENTER = 37.9711
MEAN_ANOMALY   = 322.6465

EPHEMERIS_TYPE = 0
CLASSIFICATION_TYPE = U
NORAD_CAT_ID   = 59588
ELEMENT_SET_NO = 999
REV_AT_EPOCH   = 9652
BSTAR          = .10478E-1
MEAN_MOTION_DOT = .13257E-3
MEAN_MOTION_DDOT = 0

CCSDS_OMM_VERS = 2.0
CREATION_DATE  = 
ORIGINATOR     = 

OBJECT_NAME    = SZ-21 MODULE
OBJECT_ID      = 2025-246C
CENTER_NAME    = EARTH
REF_FRAME      = TEME
TIME_SYSTEM    = UTC
MEAN_ELEMENT_THEORY = SGP/SGP4

EPOCH          = 2026-03-26T10:18:41.505984
MEAN_MOTION    = 15.69816747
ECCENTRICITY   = .0001204
INCLINATION    = 41.4744
RA_OF_ASC_NODE = 100.2120
ARG_OF_PERICENTER = 208.6321
MEAN_ANOMALY   = 151.4455

EPHEMERIS_TYPE = 0
CLASSIFICATION_TYPE = U
NORAD_CAT_ID   = 66515
ELEMENT_SET_NO = 999
REV_AT_EPOCH   = 2070
BSTAR          = .29374E-3
MEAN_MOTION_DOT = .35932E-3
MEAN_MOTION_DDOT = 0

